[{"OBJECT_NAME":"GEESAT-1 02","OBJECT_ID":"2022-058B","EPOCH":"2026-03-09T21:31:57.814752","MEAN_MOTION":14.81023731,"ECCENTRICITY":0.0023088,"INCLINATION":50.0005,"RA_OF_ASC_NODE":301.1233,"ARG_OF_PERICENTER":231.8367,"MEAN_ANOMALY":128.049,"EPHEMERIS_TYPE":0,"CLASSIFICATION_TYPE":"U","NORAD_CAT_ID":52786,"ELEMENT_SET_NO":999,"REV_AT_EPOCH":20521,"BSTAR":0.00032711202,"MEAN_MOTION_DOT":2.348e-5,"MEAN_MOTION_DDOT":0},{"OBJECT_NAME":"FENGYUN 1C DEB","OBJECT_ID":"1999-025AZA","EPOCH":"2026-03-09T00:58:11.092224","MEAN_MOTION":14.92309795,"ECCENTRICITY":0.00550776,"INCLINATION":98.9912,"RA_OF_ASC_NODE":286.2715,"ARG_OF_PERICENTER":182.0101,"MEAN_ANOMALY":178.0901,"EPHEMERIS_TYPE":0,"CLASSIFICATION_TYPE":"U","NORAD_CAT_ID":30912,"ELEMENT_SET_NO":999,"REV_AT_EPOCH":687,"BSTAR":0.0018683847,"MEAN_MOTION_DOT":0.00019628,"MEAN_MOTION_DDOT":0}]
